[{"OBJECT_NAME":"OBJECT V","OBJECT_ID":"2023-085V","EPOCH":"2026-03-09T21:44:00.165408","MEAN_MOTION":15.30745852,"ECCENTRICITY":0.00069081,"INCLINATION":97.4843,"RA_OF_ASC_NODE":179.3833,"ARG_OF_PERICENTER":71.0503,"MEAN_ANOMALY":289.1485,"EPHEMERIS_TYPE":0,"CLASSIFICATION_TYPE":"U","NORAD_CAT_ID":57023,"ELEMENT_SET_NO":999,"REV_AT_EPOCH":15149,"BSTAR":0.00067780507,"MEAN_MOTION_DOT":0.00020109,"MEAN_MOTION_DDOT":0},{"OBJECT_NAME":"STARLINK-34686","OBJECT_ID":"2025-167K","EPOCH":"2026-03-09T06:54:19.261152","MEAN_MOTION":15.30199942,"ECCENTRICITY":0.00011335,"INCLINATION":53.1619,"RA_OF_ASC_NODE":28.8582,"ARG_OF_PERICENTER":84.6133,"MEAN_ANOMALY":275.4997,"EPHEMERIS_TYPE":0,"CLASSIFICATION_TYPE":"U","NORAD_CAT_ID":65087,"ELEMENT_SET_NO":999,"REV_AT_EPOCH":3341,"BSTAR":0.0010949998,"MEAN_MOTION_DOT":0.00032212,"MEAN_MOTION_DDOT":0}]
